NORAD_CAT_ID,OBJECT_NAME,OBJECT_TYPE,EPOCH,MEAN_MOTION,ECCENTRICITY,INCLINATION,RA_OF_ASC_NODE,ARG_OF_PERICENTER,MEAN_ANOMALY,BSTAR,MEAN_MOTION_DOT,MEAN_MOTION_DDOT,TLE_LINE0,TLE_LINE1,TLE_LINE2,SEMIMAJOR_AXIS,PERIOD,APOGEE,PERIGEE,DECAYED
52607.0,STARLINK-3947,PAYLOAD,2023-07-08 16:42:39,15.08844119,8.57e-05,53.2171,341.0442,94.1006,266.0084,7.7976e-05,9.54e-06,0.0,0 STARLINK-3947,1 52607U 22052K   23189.69628546  .00000954  00000-0  77976-4 0  9998,2 52607  53.2171 341.0442 0000857  94.1006 266.0084 15.08844119 63960,6917.868,95.437,540.326,539.14,0.0
52607.0,STARLINK-3947,PAYLOAD,2023-07-09 10:11:54,15.08818902,8.32e-05,53.2185,337.7747,100.6152,259.4934,0.00023999,3.532e-05,0.0,0 STARLINK-3947,1 52607U 22052K   23190.42493746  .00003532  00000-0  23999-3 0  9993,2 52607  53.2185 337.7747 0000832 100.6152 259.4934 15.08818902 64077,6917.945,95.439,540.385,539.234,0.0
52607.0,STARLINK-3947,PAYLOAD,2023-07-09 18:08:49,15.08836957,9.31e-05,53.2182,336.2876,102.0409,258.0688,-7.0309e-06,-4e-06,0.0,0 STARLINK-3947,1 52607U 22052K   23190.75613225 -.00000400  00000-0 -70309-5 0  9997,2 52607  53.2182 336.2876 0000931 102.0409 258.0688 15.08836957 64129,6917.89,95.438,540.399,539.111,0.0
52607.0,STARLINK-3947,PAYLOAD,2023-07-10 16:24:13,15.08843722,8.87e-05,53.2176,332.1242,97.3003,262.809,8.8419e-05,1.12e-05,0.0,0 STARLINK-3947,1 52607U 22052K   23191.68348613  .00001120  00000-0  88419-4 0  9994,2 52607  53.2176 332.1242 0000887  97.3003 262.8090 15.08843722 64263,6917.869,95.437,540.348,539.12,0.0
52607.0,STARLINK-3947,PAYLOAD,2023-07-11 01:56:32,15.08839753,8.07e-05,53.2182,330.3398,93.1764,266.9321,1.5302e-05,-4.4e-07,0.0,0 STARLINK-3947,1 52607U 22052K   23192.08093038 -.00000044  00000-0  15302-4 0  9993,2 52607  53.2182 330.3398 0000807  93.1764 266.9321 15.08839753 64320,6917.881,95.438,540.304,539.188,0.0
52607.0,STARLINK-3947,PAYLOAD,2023-07-11 09:53:28,15.08832578,8.39e-05,53.2177,328.8528,103.363,256.7456,5.0726e-05,5.2e-06,0.0,0 STARLINK-3947,1 52607U 22052K   23192.41213605  .00000520  00000-0  50726-4 0  9991,2 52607  53.2177 328.8528 0000839 103.3630 256.7456 15.08832578 64371,6917.903,95.438,540.348,539.188,0.0
52607.0,STARLINK-3947,PAYLOAD,2023-07-11 16:15:00,15.08840829,8.94e-05,53.2177,327.6639,100.0033,260.106,0.00011454,1.536e-05,0.0,0 STARLINK-3947,1 52607U 22052K   23192.67709029  .00001536  00000-0  11454-3 0  9991,2 52607  53.2177 327.6639 0000894 100.0033 260.1060 15.08840829 64416,6917.878,95.438,540.361,539.124,0.0
52607.0,STARLINK-3947,PAYLOAD,2023-07-12 08:08:52,15.08834132,6.78e-05,53.2177,324.6913,91.4757,268.6312,5.1966e-05,5.39e-06,0.0,0 STARLINK-3947,1 52607U 22052K   23193.33949769  .00000539  00000-0  51966-4 0  9997,2 52607  53.2177 324.6913 0000678  91.4757 268.6312 15.08834132 64518,6917.898,95.438,540.232,539.294,0.0
52607.0,STARLINK-3947,PAYLOAD,2023-07-13 17:31:58,15.08842518,8.72e-05,53.2182,318.4464,83.4712,276.638,5.6078e-05,6.05e-06,0.0,0 STARLINK-3947,1 52607U 22052K   23194.73053508  .00000605  00000-0  56078-4 0  9992,2 52607  53.2182 318.4464 0000872  83.4712 276.6380 15.08842518 64728,6917.873,95.437,540.341,539.134,0.0
52607.0,STARLINK-3947,PAYLOAD,2023-07-14 07:50:26,15.08838178,0.0001188,53.2178,315.7691,82.4128,277.6999,4.6294e-05,4.49e-06,0.0,0 STARLINK-3947,1 52607U 22052K   23195.32670011  .00000449  00000-0  46294-4 0  9997,2 52607  53.2178 315.7691 0001188  82.4128 277.6999 15.08838178 64810,6917.886,95.438,540.573,538.929,0.0
52607.0,STARLINK-3947,PAYLOAD,2023-07-14 14:11:58,15.08844049,0.0001166,53.2174,314.582,71.5316,288.5802,0.00010596,1.399e-05,0.0,0 STARLINK-3947,1 52607U 22052K   23195.59165430  .00001399  00000-0  10596-3 0  9990,2 52607  53.2174 314.5820 0001166  71.5316 288.5802 15.08844049 64853,6917.868,95.437,540.54,538.926,0.0
52607.0,STARLINK-3947,PAYLOAD,2023-07-15 17:13:32,15.08843636,0.0001629,53.2181,309.5218,113.5744,246.542,-6.188e-05,-1.273e-05,0.0,0 STARLINK-3947,1 52607U 22052K   23196.71773812 -.00001273  00000-0 -61880-4 0  9990,2 52607  53.2181 309.5218 0001629 113.5744 246.5420 15.08843636 65023,6917.869,95.437,540.861,538.607,0.0
52607.0,STARLINK-3947,PAYLOAD,2023-07-17 13:44:20,15.08843972,0.0001083,53.2163,301.1982,87.6594,272.4522,0.00015939,2.25e-05,0.0,0 STARLINK-3947,1 52607U 22052K   23198.57245460  .00002250  00000-0  15939-3 0  9996,2 52607  53.2163 301.1982 0001083  87.6594 272.4522 15.08843972 65302,6917.868,95.437,540.482,538.984,0.0
52607.0,STARLINK-3947,PAYLOAD,2023-07-18 10:24:21,15.08839978,0.0001056,53.2169,297.3329,90.0851,270.0262,8.3524e-05,1.042e-05,0.0,0 STARLINK-3947,1 52607U 22052K   23199.43357927  .00001042  00000-0  83524-4 0  9998,2 52607  53.2169 297.3329 0001056  90.0851 270.0262 15.08839978 65433,6917.88,95.438,540.476,539.015,0.0
52607.0,STARLINK-3947,PAYLOAD,2023-07-19 10:15:09,15.08833652,0.000108,53.2173,292.8722,99.0499,261.0616,-9.3938e-05,-1.782e-05,0.0,0 STARLINK-3947,1 52607U 22052K   23200.42719167 -.00001782  00000-0 -93938-4 0  9991,2 52607  53.2173 292.8722 0001080  99.0499 261.0616 15.08833652 65581,6917.9,95.438,540.512,539.018,0.0
52607.0,STARLINK-3947,PAYLOAD,2023-07-20 14:52:04,15.08847025,0.0001298,53.2172,287.5193,109.2859,250.8274,0.0001254,1.709e-05,0.0,0 STARLINK-3947,1 52607U 22052K   23201.61950073  .00001709  00000-0  12540-3 0  9992,2 52607  53.2172 287.5193 0001298 109.2859 250.8274 15.08847025 65763,6917.859,95.437,540.622,538.826,0.0
52607.0,STARLINK-3947,PAYLOAD,2023-07-21 06:45:56,15.08837562,0.0001129,53.2167,284.546,98.1706,261.9414,0.00017801,2.546e-05,0.0,0 STARLINK-3947,1 52607U 22052K   23202.28190740  .00002546  00000-0  17801-3 0  9998,2 52607  53.2167 284.5460 0001129  98.1706 261.9414 15.08837562 65866,6917.888,95.438,540.534,538.972,0.0
52607.0,STARLINK-3947,PAYLOAD,2023-07-24 04:42:54,15.0884031,0.0001383,53.2161,271.4624,93.3168,266.7983,0.00012481,1.699e-05,0.0,0 STARLINK-3947,1 52607U 22052K   23205.19646821  .00001699  00000-0  12481-3 0  9994,2 52607  53.2161 271.4624 0001383  93.3168 266.7983 15.08840310 65924,6917.879,95.438,540.701,538.788,0.0
52607.0,STARLINK-3947,PAYLOAD,2023-07-25 10:55:14,15.08838247,0.00012,53.2165,265.8117,98.0695,262.0433,4.4717e-05,4.24e-06,0.0,0 STARLINK-3947,1 52607U 22052K   23206.45503009  .00000424  00000-0  44717-4 0  9997,2 52607  53.2165 265.8117 0001200  98.0695 262.0433 15.08838247 66114,6917.886,95.438,540.581,538.921,0.0
52607.0,STARLINK-3947,PAYLOAD,2023-07-26 12:21:24,15.08844177,0.0001193,53.2163,261.0544,95.8192,264.2937,0.00011863,1.601e-05,0.0,0 STARLINK-3947,1 52607U 22052K   23207.51486571  .00001601  00000-0  11863-3 0  9992,2 52607  53.2163 261.0544 0001193  95.8192 264.2937 15.08844177 66271,6917.868,95.437,540.558,538.907,0.0
52607.0,STARLINK-3947,PAYLOAD,2023-07-26 20:18:20,15.08842747,9.67e-05,53.2158,259.5688,77.9383,282.1718,0.00010995,1.463e-05,0.0,0 STARLINK-3947,1 52607U 22052K   23207.84606660  .00001463  00000-0  10995-3 0  9992,2 52607  53.2158 259.5688 0000967  77.9383 282.1718 15.08842747 66320,6917.872,95.437,540.406,539.068,0.0
52607.0,STARLINK-3947,PAYLOAD,2023-07-27 02:39:52,15.08841599,0.0001156,53.2161,258.3787,86.1409,273.9715,0.00012217,1.657e-05,0.0,0 STARLINK-3947,1 52607U 22052K   23208.11102715  .00001657  00000-0  12217-3 0  9999,2 52607  53.2161 258.3787 0001156  86.1409 273.9715 15.08841599 66366,6917.876,95.437,540.54,538.941,0.0
52607.0,STARLINK-3947,PAYLOAD,2023-07-27 20:09:07,15.08837254,0.0001145,53.2158,255.1076,83.8926,276.2196,5.5563e-05,5.97e-06,0.0,0 STARLINK-3947,1 52607U 22052K   23208.83967234  .00000597  00000-0  55563-4 0  9997,2 52607  53.2158 255.1076 0001145  83.8926 276.2196 15.08837254 66478,6917.889,95.438,540.546,538.962,0.0
52607.0,STARLINK-3947,PAYLOAD,2023-07-28 02:30:40,15.08835585,0.000116,53.2162,253.9184,85.8269,274.2855,-5.9061e-07,-2.97e-06,0.0,0 STARLINK-3947,1 52607U 22052K   23209.10463558 -.00000297  00000-0 -59061-6 0  9996,2 52607  53.2162 253.9184 0001160  85.8269 274.2855 15.08835585 66899,6917.894,95.438,540.561,538.956,0.0
52607.0,STARLINK-3947,PAYLOAD,2023-07-28 12:02:59,15.08834038,0.0001174,53.2161,252.1338,83.1645,276.948,-2.6389e-05,-7.08e-06,0.0,0 STARLINK-3947,1 52607U 22052K   23209.50207835 -.00000708  00000-0 -26389-4 0  9996,2 52607  53.2161 252.1338 0001174  83.1645 276.9480 15.08834038 66574,6917.899,95.438,540.576,538.951,0.0
52607.0,STARLINK-3947,PAYLOAD,2023-07-29 10:18:22,15.08873025,9.72e-05,53.2159,247.9698,95.1872,264.9231,-0.00039318,-6.545e-05,0.0,0 STARLINK-3947,1 52607U 22052K   23210.42942290 -.00006545  00000-0 -39318-3 0  9990,2 52607  53.2159 247.9698 0000972  95.1872 264.9231 15.08873025 67090,6917.779,95.435,540.317,538.972,0.0
52607.0,STARLINK-3947,PAYLOAD,2023-07-30 02:12:14,15.0883757,0.0001006,53.2159,244.9961,84.8974,275.2133,0.0001519,2.13e-05,0.0,0 STARLINK-3947,1 52607U 22052K   23211.09183340  .00002130  00000-0  15190-3 0  9993,2 52607  53.2159 244.9961 0001006  84.8974 275.2133 15.08837570 67199,6917.888,95.438,540.449,539.057,0.0
52607.0,STARLINK-3947,PAYLOAD,2023-07-31 08:24:33,15.08844559,0.000102,53.2157,239.3455,90.1119,269.999,7.5036e-05,9.07e-06,0.0,0 STARLINK-3947,1 52607U 22052K   23212.35039090  .00000907  00000-0  75036-4 0  9991,2 52607  53.2157 239.3455 0001020  90.1119 269.9990 15.08844559 67387,6917.866,95.437,540.437,539.026,0.0
52607.0,STARLINK-3947,PAYLOAD,2023-08-01 05:04:35,15.08818134,9.62e-05,53.2154,235.4797,97.4316,262.6785,0.00032132,4.827e-05,0.0,0 STARLINK-3947,1 52607U 22052K   23213.21152145  .00004827  00000-0  32132-3 0  9998,2 52607  53.2154 235.4797 0000962  97.4316 262.6785 15.08818134 67510,6917.947,95.439,540.478,539.147,0.0
52607.0,STARLINK-3947,PAYLOAD,2023-08-01 11:26:07,15.0884019,0.0001019,53.2152,234.29,92.7841,267.3267,1.47e-05,-5.4e-07,0.0,0 STARLINK-3947,1 52607U 22052K   23213.47647369 -.00000054  00000-0  14700-4 0  9994,2 52607  53.2152 234.2900 0001019  92.7841 267.3267 15.08840190 67554,6917.88,95.438,540.45,539.04,0.0
